{"type":"FeatureCollection","features":[{"type":"Feature","geometry":{"type":"Point","coordinates":[121.519047,25.0367564]},"properties":{"title":"NSO室內樂《自然之音》","startDate":"2025/06/14","endDate":"2025/06/14","nextStartTime":"2025/06/14 19:30:00","nextEndTime":"2025/06/14 21:30:00","nextOnSales":1,"nextPrice":"","nextLocation":"臺北市中正區中山南路21-1號","sourceWebName":"OPENTIX兩廳院文化生活","webSales":"https://www.opentix.life/program/1856331711357935617","district":"中正區"}},{"type":"Feature","geometry":{"type":"Point","coordinates":[121.519047,25.0367564]},"properties":{"title":"NSO室內樂《瑞德凡．弗拉柯維克與朋友們》","startDate":"2025/06/22","endDate":"2025/06/22","nextStartTime":"2025/06/22 19:30:00","nextEndTime":"2025/06/22 21:30:00","nextOnSales":1,"nextPrice":"","nextLocation":"臺北市中正區中山南路21-1號","sourceWebName":"OPENTIX兩廳院文化生活","webSales":"https://www.opentix.life/program/1856334155732500480","district":"中正區"}},{"type":"Feature","geometry":{"type":"Point","coordinates":[121.519047,25.0367564]},"properties":{"title":"法國巴黎銀行財富管理音樂巡禮－NSO《號角．交響羅曼史》","startDate":"2025/06/21","endDate":"2025/06/21","nextStartTime":"2025/06/21 14:30:00","nextEndTime":"2025/06/21 16:30:00","nextOnSales":1,"nextPrice":"","nextLocation":"臺北市中正區中山南路21-1號，信義路側","sourceWebName":"OPENTIX兩廳院文化生活","webSales":"https://www.opentix.life/program/1858352360957964288","district":"中正區"}},{"type":"Feature","geometry":{"type":"Point","coordinates":[121.519047,25.0367564]},"properties":{"title":"NSO《無垠之境》米格爾．哈斯-貝多亞與楊文信","startDate":"2025/06/27","endDate":"2025/06/27","nextStartTime":"2025/06/27 19:30:00","nextEndTime":"2025/06/27 21:30:00","nextOnSales":1,"nextPrice":"","nextLocation":"臺北市中正區中山南路21-1號，信義路側","sourceWebName":"OPENTIX兩廳院文化生活","webSales":"https://www.opentix.life/program/1858390537956986880","district":"中正區"}},{"type":"Feature","geometry":{"type":"Point","coordinates":[121.56143652677528,25.04475517961833]},"properties":{"title":"【2025誠品室內樂節10週年】《印象舒曼．唯美風采》","startDate":"2025/06/07","endDate":"2025/06/07","nextStartTime":"2025/06/07 19:30:00","nextEndTime":"2025/06/07 21:00:00","nextOnSales":1,"nextPrice":"","nextLocation":"臺北市信義區菸廠路88號B1","sourceWebName":"OPENTIX兩廳院文化生活","webSales":"https://www.opentix.life/program/1866060642863357953","district":"信義區"}},{"type":"Feature","geometry":{"type":"Point","coordinates":[121.5103541,25.0425041]},"properties":{"title":"胡琴高峰會─2025臺北市傳統藝術季閉幕音樂會","startDate":"2025/06/01","endDate":"2025/06/01","nextStartTime":"2025/06/01 14:30:00","nextEndTime":"2025/06/01 16:30:00","nextOnSales":1,"nextPrice":"","nextLocation":"臺北市中正區延平南路98號","sourceWebName":"OPENTIX兩廳院文化生活","webSales":"https://www.opentix.life/program/1858761635551686657","district":"中正區"}},{"type":"Feature","geometry":{"type":"Point","coordinates":[121.5333839,25.051759]},"properties":{"title":"故鄉希望舞台 ~ 長笛十大名曲大放送","startDate":"2025/06/15","endDate":"2025/06/15","nextStartTime":"2025/06/15 15:00:00","nextEndTime":"2025/06/15 16:20:00","nextOnSales":1,"nextPrice":"","nextLocation":"臺北市中山區南京東路二段124號9樓","sourceWebName":"OPENTIX兩廳院文化生活","webSales":"https://www.opentix.life/program/1872821801740668928","district":"中山區"}},{"type":"Feature","geometry":{"type":"Point","coordinates":[121.519047,25.0367564]},"properties":{"title":"21世紀牧神之聲-布魯諾長笛演奏會","startDate":"2025/06/05","endDate":"2025/06/05","nextStartTime":"2025/06/05 19:30:00","nextEndTime":"2025/06/05 21:10:00","nextOnSales":1,"nextPrice":"","nextLocation":"臺北市中正區中山南路21-1號","sourceWebName":"OPENTIX兩廳院文化生活","webSales":"https://www.opentix.life/program/1873932665846411265","district":"中正區"}},{"type":"Feature","geometry":{"type":"Point","coordinates":[121.519047,25.0367564]},"properties":{"title":"龍潭愛樂～傾聽靈魂之淚與美","startDate":"2025/06/09","endDate":"2025/06/09","nextStartTime":"2025/06/09 19:30:00","nextEndTime":"2025/06/09 21:30:00","nextOnSales":1,"nextPrice":"","nextLocation":"臺北市中正區中山南路21-1號，信義路側","sourceWebName":"OPENTIX兩廳院文化生活","webSales":"https://www.opentix.life/program/1880144993132314625","district":"中正區"}},{"type":"Feature","geometry":{"type":"Point","coordinates":[121.519047,25.0367564]},"properties":{"title":"《伊萱與朋友們》系列音樂會——〈唱吧！沒有明天的唱吧！〉","startDate":"2025/05/31","endDate":"2025/05/31","nextStartTime":"2025/05/31 19:30:00","nextEndTime":"2025/05/31 22:00:00","nextOnSales":1,"nextPrice":"","nextLocation":"臺北市中正區中山南路21-1號","sourceWebName":"OPENTIX兩廳院文化生活","webSales":"https://www.opentix.life/program/1878987221479596033","district":"中正區"}},{"type":"Feature","geometry":{"type":"Point","coordinates":[121.519047,25.0367564]},"properties":{"title":"力晶2025藝文饗宴 — 巴黎管弦樂團","startDate":"2025/06/24","endDate":"2025/06/25","nextStartTime":"2025/06/24 19:30:00","nextEndTime":"2025/06/24 21:30:00","nextOnSales":1,"nextPrice":"","nextLocation":"臺北市中正區中山南路21-1號，信義路側","sourceWebName":"OPENTIX兩廳院文化生活","webSales":"https://www.opentix.life/program/1878451345938358273","district":"中正區"}},{"type":"Feature","geometry":{"type":"Point","coordinates":[121.519047,25.0367564]},"properties":{"title":"景勝客家戲劇團【薛丁山與樊梨花】（免費觀賞）","startDate":"2025/06/01","endDate":"2025/06/01","nextStartTime":"2025/06/01 17:00:00","nextEndTime":"2025/06/01 17:00:00","nextOnSales":0,"nextPrice":"","nextLocation":"臺北市中正區中山南路21號","sourceWebName":"藝文活動報名平台","webSales":"https://event.culture.tw/mocweb/reg/CKSMH/Detail.init.ctr?actId=50695","district":"中正區"}},{"type":"Feature","geometry":{"type":"Point","coordinates":[121.519047,25.0367564]},"properties":{"title":"逸蘭軒掌中劇團【豬兒們の消防奇遇】（免費觀賞）","startDate":"2025/06/08","endDate":"2025/06/08","nextStartTime":"2025/06/08 17:00:00","nextEndTime":"2025/06/08 17:00:00","nextOnSales":0,"nextPrice":"","nextLocation":"臺北市中正區中山南路21號","sourceWebName":"藝文活動報名平台","webSales":"https://event.culture.tw/mocweb/reg/CKSMH/Detail.init.ctr?actId=50697","district":"中正區"}},{"type":"Feature","geometry":{"type":"Point","coordinates":[121.519047,25.0367564]},"properties":{"title":"台北室內女聲合唱團2【芳華絕代-唱遊知音系列音樂會】（免費觀賞）","startDate":"2025/06/14","endDate":"2025/06/14","nextStartTime":"2025/06/14 17:00:00","nextEndTime":"2025/06/14 17:00:00","nextOnSales":0,"nextPrice":"","nextLocation":"臺北市中正區中山南路21號","sourceWebName":"藝文活動報名平台","webSales":"https://event.culture.tw/mocweb/reg/CKSMH/Detail.init.ctr?actId=50698","district":"中正區"}},{"type":"Feature","geometry":{"type":"Point","coordinates":[121.519047,25.0367564]},"properties":{"title":"蘭陽人銅管五重奏【「銅」來歡唱】（免費觀賞）","startDate":"2025/06/15","endDate":"2025/06/15","nextStartTime":"2025/06/15 17:00:00","nextEndTime":"2025/06/15 17:00:00","nextOnSales":0,"nextPrice":"","nextLocation":"臺北市中正區中山南路21號","sourceWebName":"藝文活動報名平台","webSales":"https://event.culture.tw/mocweb/reg/CKSMH/Detail.init.ctr?actId=50699","district":"中正區"}},{"type":"Feature","geometry":{"type":"Point","coordinates":[121.519047,25.0367564]},"properties":{"title":"山河樂集【友善海洋音樂故事-珊瑚滿天星】（免費觀賞）","startDate":"2025/06/21","endDate":"2025/06/21","nextStartTime":"2025/06/21 17:00:00","nextEndTime":"2025/06/21 17:00:00","nextOnSales":0,"nextPrice":"","nextLocation":"臺北市中正區中山南路21號","sourceWebName":"藝文活動報名平台","webSales":"https://event.culture.tw/mocweb/reg/CKSMH/Detail.init.ctr?actId=50700","district":"中正區"}},{"type":"Feature","geometry":{"type":"Point","coordinates":[121.519047,25.0367564]},"properties":{"title":"建中子恩合唱團【發聲II-復原與重生】（免費觀賞）","startDate":"2025/06/22","endDate":"2025/06/22","nextStartTime":"2025/06/22 17:00:00","nextEndTime":"2025/06/22 17:00:00","nextOnSales":0,"nextPrice":"","nextLocation":"臺北市中正區中山南路21號","sourceWebName":"藝文活動報名平台","webSales":"https://event.culture.tw/mocweb/reg/CKSMH/Detail.init.ctr?actId=50701","district":"中正區"}},{"type":"Feature","geometry":{"type":"Point","coordinates":[121.519047,25.0367564]},"properties":{"title":"琴弦．迴聲－2025黃郁婷小提琴獨奏會","startDate":"2025/06/06","endDate":"2025/06/06","nextStartTime":"2025/06/06 19:30:00","nextEndTime":"2025/06/06 21:00:00","nextOnSales":1,"nextPrice":"","nextLocation":"臺北市中正區中山南路21-1號","sourceWebName":"OPENTIX兩廳院文化生活","webSales":"https://www.opentix.life/program/1888071931132379137","district":"中正區"}},{"type":"Feature","geometry":{"type":"Point","coordinates":[120.342434118507,22.6230179238508]},"properties":{"title":"力晶2025藝文饗宴—鋼琴大師普雷特涅夫獨奏會","startDate":"2025/06/10","endDate":"2025/06/11","nextStartTime":"2025/06/11 19:30:00","nextEndTime":"2025/06/11 21:15:00","nextOnSales":1,"nextPrice":"","nextLocation":"臺北市中正區中山南路21-1號，信義路側","sourceWebName":"OPENTIX兩廳院文化生活","webSales":"https://www.opentix.life/program/1890282619206635521","district":"中正區"}},{"type":"Feature","geometry":{"type":"Point","coordinates":[121.519047,25.0367564]},"properties":{"title":"黃盈媛大提琴獨奏會~法緻印象","startDate":"2025/06/08","endDate":"2025/06/08","nextStartTime":"2025/06/08 19:30:00","nextEndTime":"2025/06/08 21:30:00","nextOnSales":1,"nextPrice":"","nextLocation":"臺北市中正區中山南路21-1號","sourceWebName":"OPENTIX兩廳院文化生活","webSales":"https://www.opentix.life/program/1891369742158594049","district":"中正區"}},{"type":"Feature","geometry":{"type":"Point","coordinates":[121.519047,25.0367564]},"properties":{"title":"2025陳昱翰大提琴獨奏會","startDate":"2025/06/15","endDate":"2025/06/15","nextStartTime":"2025/06/15 19:30:00","nextEndTime":"2025/06/15 21:30:00","nextOnSales":1,"nextPrice":"","nextLocation":"臺北市中正區中山南路21-1號","sourceWebName":"OPENTIX兩廳院文化生活","webSales":"https://www.opentix.life/program/1899432910399762433","district":"中正區"}},{"type":"Feature","geometry":{"type":"Point","coordinates":[121.519047,25.0367564]},"properties":{"title":"舒曼：三首小提琴與鋼琴奏鳴曲","startDate":"2025/06/01","endDate":"2025/06/01","nextStartTime":"2025/06/01 19:30:00","nextEndTime":"2025/06/01 21:00:00","nextOnSales":1,"nextPrice":"","nextLocation":"臺北市中正區中山南路21-1號","sourceWebName":"OPENTIX兩廳院文化生活","webSales":"https://www.opentix.life/program/1893862606409043968","district":"中正區"}},{"type":"Feature","geometry":{"type":"Point","coordinates":[121.519047,25.0367564]},"properties":{"title":"獨一無二 - 舒曼的奇幻世界","startDate":"2025/06/20","endDate":"2025/06/20","nextStartTime":"2025/06/20 19:30:00","nextEndTime":"2025/06/20 21:10:00","nextOnSales":1,"nextPrice":"","nextLocation":"臺北市中正區中山南路21-1號","sourceWebName":"OPENTIX兩廳院文化生活","webSales":"https://www.opentix.life/program/1897201058618073089","district":"中正區"}},{"type":"Feature","geometry":{"type":"Point","coordinates":[121.519047,25.0367564]},"properties":{"title":"舒曼：三首弦樂四重奏","startDate":"2025/06/29","endDate":"2025/06/29","nextStartTime":"2025/06/29 14:30:00","nextEndTime":"2025/06/29 16:00:00","nextOnSales":1,"nextPrice":"","nextLocation":"臺北市中正區中山南路21-1號","sourceWebName":"OPENTIX兩廳院文化生活","webSales":"https://www.opentix.life/program/1897203228864602112","district":"中正區"}},{"type":"Feature","geometry":{"type":"Point","coordinates":[121.51817396100923,25.035357131907]},"properties":{"title":"2025九天民俗技藝團-陣頭劇場《牽水(車藏)》","startDate":"2025/05/31","endDate":"2025/06/01","nextStartTime":"2025/05/31 19:30:00","nextEndTime":"2025/05/31 21:30:00","nextOnSales":1,"nextPrice":"","nextLocation":"臺北市中正區中山南路21之1號，愛國東路側","sourceWebName":"OPENTIX兩廳院文化生活","webSales":"https://www.opentix.life/program/1897522763326320641","district":"中正區"}},{"type":"Feature","geometry":{"type":"Point","coordinates":[121.519047,25.0367564]},"properties":{"title":"2025板橋樂展～印象絲竹","startDate":"2025/06/17","endDate":"2025/06/17","nextStartTime":"2025/06/17 19:30:00","nextEndTime":"2025/06/17 21:30:00","nextOnSales":1,"nextPrice":"","nextLocation":"臺北市中正區中山南路21-1號，信義路側","sourceWebName":"OPENTIX兩廳院文化生活","webSales":"https://www.opentix.life/program/1899662224722808833","district":"中正區"}},{"type":"Feature","geometry":{"type":"Point","coordinates":[121.519047,25.0367564]},"properties":{"title":"《嚦嚦鶯歌溜的圓》音樂會","startDate":"2025/06/13","endDate":"2025/06/13","nextStartTime":"2025/06/13 19:30:00","nextEndTime":"2025/06/13 21:30:00","nextOnSales":1,"nextPrice":"","nextLocation":"臺北市中正區中山南路21-1號","sourceWebName":"OPENTIX兩廳院文化生活","webSales":"https://www.opentix.life/program/1892156064752209921","district":"中正區"}},{"type":"Feature","geometry":{"type":"Point","coordinates":[120.342434118507,22.6230179238508]},"properties":{"title":"摯愛經典─劉舒涯獨奏","startDate":"2025/06/07","endDate":"2025/06/08","nextStartTime":"2025/06/08 14:30:00","nextEndTime":"2025/06/08 16:30:00","nextOnSales":1,"nextPrice":"","nextLocation":"臺北市中正區中山南路21-1號","sourceWebName":"OPENTIX兩廳院文化生活","webSales":"https://www.opentix.life/program/1891334307522809857","district":"中正區"}},{"type":"Feature","geometry":{"type":"Point","coordinates":[121.5072876,25.04214]},"properties":{"title":"那些我在婚禮上會唱的歌","startDate":"2025/06/14","endDate":"2025/06/14","nextStartTime":"2025/06/14 14:30:00","nextEndTime":"2025/06/14 16:30:00","nextOnSales":1,"nextPrice":"","nextLocation":"臺北市萬華區成都路10號","sourceWebName":"OPENTIX兩廳院文化生活","webSales":"https://www.opentix.life/program/1901820524581916672","district":"萬華區"}},{"type":"Feature","geometry":{"type":"Point","coordinates":[121.469965395222,25.1331246145541]},"properties":{"title":"北藝大2025春夏系列《北藝大新音樂工作坊2025春夏音樂會》","startDate":"2025/06/06","endDate":"2025/06/06","nextStartTime":"2025/06/06 19:30:00","nextEndTime":"2025/06/06 21:30:00","nextOnSales":1,"nextPrice":"","nextLocation":"臺北市北投區學園路1號","sourceWebName":"OPENTIX兩廳院文化生活","webSales":"https://www.opentix.life/program/1892824035851595777","district":"北投區"}},{"type":"Feature","geometry":{"type":"Point","coordinates":[121.519047,25.0367564]},"properties":{"title":"拉縴人歌手《透抽遊戲》","startDate":"2025/06/21","endDate":"2025/06/21","nextStartTime":"2025/06/21 19:30:00","nextEndTime":"2025/06/21 21:00:00","nextOnSales":1,"nextPrice":"","nextLocation":"臺北市中正區中山南路21-1號","sourceWebName":"OPENTIX兩廳院文化生活","webSales":"https://www.opentix.life/program/1899734687460114432","district":"中正區"}},{"type":"Feature","geometry":{"type":"Point","coordinates":[121.5226514,25.0424335]},"properties":{"title":"余濟倫璀璨三重奏講座音樂會-布拉格的春天","startDate":"2025/06/07","endDate":"2025/06/07","nextStartTime":"2025/06/07 14:30:00","nextEndTime":"2025/06/07 16:30:00","nextOnSales":1,"nextPrice":"","nextLocation":"臺北市中正區濟南路一段七號B1","sourceWebName":"OPENTIX兩廳院文化生活","webSales":"https://www.opentix.life/program/1904060213834555393","district":"中正區"}},{"type":"Feature","geometry":{"type":"Point","coordinates":[121.5226514,25.0424335]},"properties":{"title":"楊千瑩／巴哈平均律全集（一）：中庸與神聖","startDate":"2025/06/21","endDate":"2025/06/21","nextStartTime":"2025/06/21 14:30:00","nextEndTime":"2025/06/21 16:00:00","nextOnSales":1,"nextPrice":"","nextLocation":"臺北市中正區濟南路一段七號B1","sourceWebName":"OPENTIX兩廳院文化生活","webSales":"https://www.opentix.life/program/1904066419225452544","district":"中正區"}},{"type":"Feature","geometry":{"type":"Point","coordinates":[121.519047,25.0367564]},"properties":{"title":"當代吉他巨匠 卡羅斯・博內爾吉他獨奏會","startDate":"2025/06/10","endDate":"2025/06/10","nextStartTime":"2025/06/10 19:30:00","nextEndTime":"2025/06/10 22:00:00","nextOnSales":1,"nextPrice":"","nextLocation":"臺北市中正區中山南路21-1號","sourceWebName":"OPENTIX兩廳院文化生活","webSales":"https://www.opentix.life/program/1904449208986488833","district":"中正區"}},{"type":"Feature","geometry":{"type":"Point","coordinates":[121.51862076759792,25.035109625324957]},"properties":{"title":"2025新點子實驗場 不二擊聲音製造所 薛詠之 《寄聲之廟》","startDate":"2025/06/27","endDate":"2025/06/29","nextStartTime":"2025/06/27 19:30:00","nextEndTime":"2025/06/27 20:30:00","nextOnSales":1,"nextPrice":"","nextLocation":"臺北市中正區中山南路21-1號","sourceWebName":"OPENTIX兩廳院文化生活","webSales":"https://www.opentix.life/program/1894585802624077825","district":"中正區"}},{"type":"Feature","geometry":{"type":"Point","coordinates":[120.6403028,24.1626492]},"properties":{"title":"<唱臺中的歌.唱咱臺中ê歌>委託創作音樂會","startDate":"2025/06/06","endDate":"2025/06/28","nextStartTime":"2025/06/28 14:30:00","nextEndTime":"2025/06/28 16:30:00","nextOnSales":1,"nextPrice":"","nextLocation":"臺北市中正區中山南路21-1號","sourceWebName":"OPENTIX兩廳院文化生活","webSales":"https://www.opentix.life/program/1901804396338286593","district":"中正區"}},{"type":"Feature","geometry":{"type":"Point","coordinates":[121.519047,25.0367564]},"properties":{"title":"弦情琴深VII丁莉齡大提琴獨奏會 指尖上的浪漫樂章","startDate":"2025/06/01","endDate":"2025/06/01","nextStartTime":"2025/06/01 14:30:00","nextEndTime":"2025/06/01 16:30:00","nextOnSales":1,"nextPrice":"","nextLocation":"臺北市中正區中山南路21-1號","sourceWebName":"OPENTIX兩廳院文化生活","webSales":"https://www.opentix.life/program/1902648849773522944","district":"中正區"}},{"type":"Feature","geometry":{"type":"Point","coordinates":[121.519047,25.0367564]},"properties":{"title":"2025節慶長笛樂團音樂會","startDate":"2025/06/25","endDate":"2025/06/25","nextStartTime":"2025/06/25 19:30:00","nextEndTime":"2025/06/25 21:10:00","nextOnSales":1,"nextPrice":"","nextLocation":"臺北市中正區中山南路21-1號","sourceWebName":"OPENTIX兩廳院文化生活","webSales":"https://www.opentix.life/program/1904351769497968640","district":"中正區"}},{"type":"Feature","geometry":{"type":"Point","coordinates":[121.519047,25.0367564]},"properties":{"title":"何婕榕小提琴獨奏會 Beloved","startDate":"2025/06/02","endDate":"2025/06/02","nextStartTime":"2025/06/02 19:30:00","nextEndTime":"2025/06/02 21:30:00","nextOnSales":1,"nextPrice":"","nextLocation":"臺北市中正區中山南路21-1號","sourceWebName":"OPENTIX兩廳院文化生活","webSales":"https://www.opentix.life/program/1905199742475423745","district":"中正區"}},{"type":"Feature","geometry":{"type":"Point","coordinates":[121.469965395222,25.1331246145541]},"properties":{"title":"水啊——江昀諪古琴碩士畢業音樂會","startDate":"2025/06/07","endDate":"2025/06/07","nextStartTime":"2025/06/07 19:30:00","nextEndTime":"2025/06/07 21:30:00","nextOnSales":1,"nextPrice":"","nextLocation":"臺北市北投區學園路1號","sourceWebName":"OPENTIX兩廳院文化生活","webSales":"https://www.opentix.life/program/1903457109119524864","district":"北投區"}},{"type":"Feature","geometry":{"type":"Point","coordinates":[121.519047,25.0367564]},"properties":{"title":"姜采希✕臺灣新銳作曲家 - 現代箏樂作品音樂會","startDate":"2025/06/24","endDate":"2025/06/24","nextStartTime":"2025/06/24 19:30:00","nextEndTime":"2025/06/24 21:30:00","nextOnSales":1,"nextPrice":"","nextLocation":"臺北市中正區中山南路21-1號","sourceWebName":"OPENTIX兩廳院文化生活","webSales":"https://www.opentix.life/program/1904774508179128321","district":"中正區"}},{"type":"Feature","geometry":{"type":"Point","coordinates":[121.0121201,24.8301478]},"properties":{"title":"2025 巴雀室〞重瘋《Ahhh!!!》","startDate":"2025/06/08","endDate":"2025/06/27","nextStartTime":"2025/06/27 19:30:00","nextEndTime":"2025/06/27 21:10:00","nextOnSales":1,"nextPrice":"","nextLocation":"臺北市中正區中山南路21-1號","sourceWebName":"OPENTIX兩廳院文化生活","webSales":"https://www.opentix.life/program/1905590012008734721","district":"中正區"}},{"type":"Feature","geometry":{"type":"Point","coordinates":[121.469965395222,25.1331246145541]},"properties":{"title":"再操一曲：五六四亻ㄨ大四子－洪立馨碩士班南管畢業音樂會","startDate":"2025/06/07","endDate":"2025/06/07","nextStartTime":"2025/06/07 14:00:00","nextEndTime":"2025/06/07 15:30:00","nextOnSales":1,"nextPrice":"","nextLocation":"臺北市北投區學園路1號","sourceWebName":"OPENTIX兩廳院文化生活","webSales":"https://www.opentix.life/program/1908523561999327233","district":"北投區"}},{"type":"Feature","geometry":{"type":"Point","coordinates":[121.5226514,25.0424335]},"properties":{"title":"「夏日-鈴颺」","startDate":"2025/06/06","endDate":"2025/06/06","nextStartTime":"2025/06/06 19:30:00","nextEndTime":"2025/06/06 21:30:00","nextOnSales":1,"nextPrice":"","nextLocation":"臺北市中正區濟南路一段七號B1","sourceWebName":"OPENTIX兩廳院文化生活","webSales":"https://www.opentix.life/program/1906895118079082497","district":"中正區"}},{"type":"Feature","geometry":{"type":"Point","coordinates":[121.5197787,25.1022766]},"properties":{"title":"臺灣國樂團《弦歌不絕》","startDate":"2025/06/14","endDate":"2025/06/14","nextStartTime":"2025/06/14 14:30:00","nextEndTime":"2025/06/14 16:05:00","nextOnSales":1,"nextPrice":"","nextLocation":"臺北市士林區文林路751號","sourceWebName":"OPENTIX兩廳院文化生活","webSales":"https://www.opentix.life/program/1907419254355169280","district":"士林區"}},{"type":"Feature","geometry":{"type":"Point","coordinates":[121.519047,25.0367564]},"properties":{"title":"人聲壯遊V《中歐風情畫》台北愛樂青年合唱團音樂會","startDate":"2025/06/02","endDate":"2025/06/02","nextStartTime":"2025/06/02 19:30:00","nextEndTime":"2025/06/02 21:05:00","nextOnSales":1,"nextPrice":"","nextLocation":"臺北市中正區中山南路21-1號，信義路側","sourceWebName":"OPENTIX兩廳院文化生活","webSales":"https://www.opentix.life/program/1909799211969286144","district":"中正區"}},{"type":"Feature","geometry":{"type":"Point","coordinates":[121.519047,25.0367564]},"properties":{"title":"2025台北青管名家系列~吳志桓薩氏管獨奏會《六年級的戀舊情懷》","startDate":"2025/06/15","endDate":"2025/06/15","nextStartTime":"2025/06/15 14:30:00","nextEndTime":"2025/06/15 16:00:00","nextOnSales":1,"nextPrice":"","nextLocation":"臺北市中正區中山南路21-1號","sourceWebName":"OPENTIX兩廳院文化生活","webSales":"https://www.opentix.life/program/1904725688339062785","district":"中正區"}},{"type":"Feature","geometry":{"type":"Point","coordinates":[121.519047,25.0367564]},"properties":{"title":"木樓合唱團2025年度《時間沙．大地．細胞宇宙》音樂會","startDate":"2025/06/18","endDate":"2025/06/18","nextStartTime":"2025/06/18 19:30:00","nextEndTime":"2025/06/18 21:30:00","nextOnSales":1,"nextPrice":"","nextLocation":"臺北市中正區中山南路21-1號，信義路側","sourceWebName":"OPENTIX兩廳院文化生活","webSales":"https://www.opentix.life/program/1910645045728190465","district":"中正區"}},{"type":"Feature","geometry":{"type":"Point","coordinates":[121.519047,25.0367564]},"properties":{"title":"王者之聲-橫山幸雄 四大鋼琴協奏曲音樂會","startDate":"2025/06/14","endDate":"2025/06/14","nextStartTime":"2025/06/14 14:30:00","nextEndTime":"2025/06/14 16:00:00","nextOnSales":1,"nextPrice":"","nextLocation":"臺北市中正區中山南路21-1號，信義路側","sourceWebName":"OPENTIX兩廳院文化生活","webSales":"https://www.opentix.life/program/1909425756749414401","district":"中正區"}},{"type":"Feature","geometry":{"type":"Point","coordinates":[121.519047,25.0367564]},"properties":{"title":"英雄的生涯","startDate":"2025/06/10","endDate":"2025/06/10","nextStartTime":"2025/06/10 19:30:00","nextEndTime":"2025/06/10 22:00:00","nextOnSales":1,"nextPrice":"","nextLocation":"臺北市中正區中山南路21-1號，信義路側","sourceWebName":"OPENTIX兩廳院文化生活","webSales":"https://www.opentix.life/program/1913131545146757121","district":"中正區"}},{"type":"Feature","geometry":{"type":"Point","coordinates":[121.519047,25.0367564]},"properties":{"title":"2025年師友合唱團「行旅豐藏」年度音樂會","startDate":"2025/06/19","endDate":"2025/07/28","nextStartTime":"2025/06/19 19:30:00","nextEndTime":"2025/06/19 21:30:00","nextOnSales":1,"nextPrice":"","nextLocation":"臺北市中正區中山南路21-1號","sourceWebName":"OPENTIX兩廳院文化生活","webSales":"https://www.opentix.life/program/1911991499639853057","district":"中正區"}},{"type":"Feature","geometry":{"type":"Point","coordinates":[121.519047,25.0367564]},"properties":{"title":"Koji x 鄭詠珊 x 音樂說故事劇場《天河旅記—悲 歡 離 愁》","startDate":"2025/06/18","endDate":"2025/06/18","nextStartTime":"2025/06/18 20:00:00","nextEndTime":"2025/06/18 21:00:00","nextOnSales":1,"nextPrice":"","nextLocation":"臺北市中正區中山南路21-1號","sourceWebName":"OPENTIX兩廳院文化生活","webSales":"https://www.opentix.life/program/1914144769009324033","district":"中正區"}},{"type":"Feature","geometry":{"type":"Point","coordinates":[121.519047,25.0367564]},"properties":{"title":"洪幗襄2025小提琴獨奏會","startDate":"2025/06/04","endDate":"2025/06/04","nextStartTime":"2025/06/04 19:30:00","nextEndTime":"2025/06/04 21:10:00","nextOnSales":1,"nextPrice":"","nextLocation":"臺北市中正區中山南路21-1號","sourceWebName":"OPENTIX兩廳院文化生活","webSales":"https://www.opentix.life/program/1914959694296322048","district":"中正區"}},{"type":"Feature","geometry":{"type":"Point","coordinates":[121.54607423619926,25.08557316817218]},"properties":{"title":"橘聲浚響-15年音浪的傳承","startDate":"2025/06/01","endDate":"2025/06/01","nextStartTime":"2025/06/01 14:30:00","nextEndTime":"2025/06/01 16:30:00","nextOnSales":1,"nextPrice":"","nextLocation":"臺北市中山區大直街70號","sourceWebName":"OPENTIX兩廳院文化生活","webSales":"https://www.opentix.life/program/1916786485240877057","district":"中山區"}},{"type":"Feature","geometry":{"type":"Point","coordinates":[121.519047,25.0367564]},"properties":{"title":"華格納計畫～男低音羅俊穎獨唱會","startDate":"2025/06/29","endDate":"2025/06/29","nextStartTime":"2025/06/29 19:30:00","nextEndTime":"2025/06/29 20:45:00","nextOnSales":1,"nextPrice":"","nextLocation":"臺北市中正區中山南路21-1號","sourceWebName":"OPENTIX兩廳院文化生活","webSales":"https://www.opentix.life/program/1914601286136016897","district":"中正區"}},{"type":"Feature","geometry":{"type":"Point","coordinates":[121.519047,25.0367564]},"properties":{"title":"榮耀頌","startDate":"2025/06/16","endDate":"2025/06/16","nextStartTime":"2025/06/16 19:30:00","nextEndTime":"2025/06/16 21:30:00","nextOnSales":1,"nextPrice":"","nextLocation":"臺北市中正區中山南路21-1號，信義路側","sourceWebName":"OPENTIX兩廳院文化生活","webSales":"https://www.opentix.life/program/1909591011169935361","district":"中正區"}},{"type":"Feature","geometry":{"type":"Point","coordinates":[121.519047,25.0367564]},"properties":{"title":"《金色樂聲》","startDate":"2025/06/09","endDate":"2025/06/09","nextStartTime":"2025/06/09 19:30:00","nextEndTime":"2025/06/09 22:00:00","nextOnSales":1,"nextPrice":"","nextLocation":"臺北市中正區中山南路21-1號","sourceWebName":"OPENTIX兩廳院文化生活","webSales":"https://www.opentix.life/program/1909094353233104896","district":"中正區"}},{"type":"Feature","geometry":{"type":"Point","coordinates":[120.342434118507,22.6230179238508]},"properties":{"title":"2025徐文妙、張有慶小提琴聯合演奏會","startDate":"2025/06/22","endDate":"2025/06/26","nextStartTime":"2025/06/26 19:30:00","nextEndTime":"2025/06/26 21:30:00","nextOnSales":1,"nextPrice":"","nextLocation":"臺北市中正區中山南路21-1號","sourceWebName":"OPENTIX兩廳院文化生活","webSales":"https://www.opentix.life/program/1912045511147327488","district":"中正區"}},{"type":"Feature","geometry":{"type":"Point","coordinates":[121.519047,25.0367564]},"properties":{"title":"蔡秉璋中提琴獨奏會","startDate":"2025/06/12","endDate":"2025/06/12","nextStartTime":"2025/06/12 19:30:00","nextEndTime":"2025/06/12 21:00:00","nextOnSales":1,"nextPrice":"","nextLocation":"臺北市中正區中山南路21-1號","sourceWebName":"OPENTIX兩廳院文化生活","webSales":"https://www.opentix.life/program/1919610219867451393","district":"中正區"}},{"type":"Feature","geometry":{"type":"Point","coordinates":[121.53741118963288,25.052180815180147]},"properties":{"title":"不能問的世紀婚禮——《羅恩格林》解說式音樂會","startDate":"2025/06/29","endDate":"2025/07/20","nextStartTime":"2025/06/29 19:00:00","nextEndTime":"2025/06/29 22:00:00","nextOnSales":1,"nextPrice":"","nextLocation":"臺北市中山區南京東路三段9號4樓","sourceWebName":"OPENTIX兩廳院文化生活","webSales":"https://www.opentix.life/program/1914963747635122177","district":"中山區"}},{"type":"Feature","geometry":{"type":"Point","coordinates":[120.342434118507,22.6230179238508]},"properties":{"title":"好聲新星－好聲新秀音樂會","startDate":"2025/06/08","endDate":"2025/06/28","nextStartTime":"2025/06/28 19:30:00","nextEndTime":"2025/06/28 21:30:00","nextOnSales":1,"nextPrice":"","nextLocation":"臺北市中正區中山南路21-1號","sourceWebName":"OPENTIX兩廳院文化生活","webSales":"https://www.opentix.life/program/1919677630671007744","district":"中正區"}},{"type":"Feature","geometry":{"type":"Point","coordinates":[121.519047,25.0367564]},"properties":{"title":"2025陳勇成擊樂獨奏會","startDate":"2025/06/17","endDate":"2025/06/17","nextStartTime":"2025/06/17 19:30:00","nextEndTime":"2025/06/17 21:00:00","nextOnSales":1,"nextPrice":"","nextLocation":"臺北市中正區中山南路21-1號","sourceWebName":"OPENTIX兩廳院文化生活","webSales":"https://www.opentix.life/program/1920434510779494401","district":"中正區"}},{"type":"Feature","geometry":{"type":"Point","coordinates":[121.519047,25.0367564]},"properties":{"title":"2025拉縴人風雅頌合唱團音樂會《慢慢‧喜歡》","startDate":"2025/06/23","endDate":"2025/06/23","nextStartTime":"2025/06/23 19:30:00","nextEndTime":"2025/06/23 21:10:00","nextOnSales":1,"nextPrice":"","nextLocation":"臺北市中正區中山南路21-1號","sourceWebName":"OPENTIX兩廳院文化生活","webSales":"https://www.opentix.life/program/1909867156973035521","district":"中正區"}},{"type":"Feature","geometry":{"type":"Point","coordinates":[121.519047,25.0367564]},"properties":{"title":"普羅華爾茲","startDate":"2025/06/15","endDate":"2025/06/15","nextStartTime":"2025/06/15 14:30:00","nextEndTime":"2025/06/15 16:30:00","nextOnSales":1,"nextPrice":"","nextLocation":"臺北市中正區中山南路21-1號，信義路側","sourceWebName":"OPENTIX兩廳院文化生活","webSales":"https://www.opentix.life/program/1922946873881198593","district":"中正區"}},{"type":"Feature","geometry":{"type":"Point","coordinates":[121.56143652677528,25.04475517961833]},"properties":{"title":"『隱形的作曲家』 ～創樂者藝術首演(合唱篇)","startDate":"2025/06/29","endDate":"2025/06/29","nextStartTime":"2025/06/29 19:30:00","nextEndTime":"2025/06/29 21:30:00","nextOnSales":1,"nextPrice":"","nextLocation":"臺北市信義區菸廠路88號B1","sourceWebName":"OPENTIX兩廳院文化生活","webSales":"https://www.opentix.life/program/1920388782505287681","district":"信義區"}},{"type":"Feature","geometry":{"type":"Point","coordinates":[121.53867852510383,25.013768052329574]},"properties":{"title":"臺大藝文中心2025上半年節目《母語在回家的路上唱唱唱》","startDate":"2025/06/14","endDate":"2025/07/13","nextStartTime":"2025/06/14 14:30:00","nextEndTime":"2025/06/14 16:10:00","nextOnSales":1,"nextPrice":"","nextLocation":"臺北市大安區羅斯福路四段1號","sourceWebName":"OPENTIX兩廳院文化生活","webSales":"https://www.opentix.life/program/1922599750144102401","district":"大安區"}},{"type":"Feature","geometry":{"type":"Point","coordinates":[121.56143652677528,25.04475517961833]},"properties":{"title":"壹拾二.未來的樂章 黃紳輔．音樂會","startDate":"2025/06/27","endDate":"2025/06/27","nextStartTime":"2025/06/27 19:30:00","nextEndTime":"2025/06/27 21:00:00","nextOnSales":1,"nextPrice":"","nextLocation":"臺北市信義區菸廠路88號B1","sourceWebName":"OPENTIX兩廳院文化生活","webSales":"https://www.opentix.life/program/1926905646897340417","district":"信義區"}},{"type":"Feature","geometry":{"type":"Point","coordinates":[121.5232036,25.0605877]},"properties":{"title":"文化觀光傳統表演藝術劇場-臺北戲棚","startDate":"2025/05/31","endDate":"2025/06/28","nextStartTime":"2025/05/31 20:00:00","nextEndTime":"2025/05/31 23:30:00","nextOnSales":1,"nextPrice":"","nextLocation":"臺北市中山區中山北路二段113號3樓","sourceWebName":"OPENTIX兩廳院文化生活","webSales":"https://www.opentix.life/program/1863403624657735681","district":"中山區"}},{"type":"Feature","geometry":{"type":"Point","coordinates":[121.51817396100923,25.035357131907]},"properties":{"title":"音樂劇《悲慘世界》40周年紀念版音樂會世界巡演","startDate":"2025/06/12","endDate":"2025/07/06","nextStartTime":"2025/06/12 19:30:00","nextEndTime":"2025/06/12 22:30:00","nextOnSales":1,"nextPrice":"","nextLocation":"臺北市中正區中山南路21之1號，愛國東路側","sourceWebName":"OPENTIX兩廳院文化生活","webSales":"https://www.opentix.life/program/1864938599362674689","district":"中正區"}},{"type":"Feature","geometry":{"type":"Point","coordinates":[121.5197787,25.1022766]},"properties":{"title":"2025臺灣戲曲藝術節：尚和歌仔戲劇團30周年團慶大戲【叁拾號夢．戲神養成記】","startDate":"2025/06/07","endDate":"2025/06/08","nextStartTime":"2025/06/07 14:30:00","nextEndTime":"2025/06/07 17:00:00","nextOnSales":1,"nextPrice":"","nextLocation":"臺北市士林區文林路751號","sourceWebName":"OPENTIX兩廳院文化生活","webSales":"https://www.opentix.life/program/1867476196279017473","district":"士林區"}},{"type":"Feature","geometry":{"type":"Point","coordinates":[121.524399267913,25.0847069488325]},"properties":{"title":"北藝嚴選：盧卡斯．塔沃柯夫斯基《共和國》","startDate":"2025/06/04","endDate":"2025/06/08","nextStartTime":"2025/06/04 19:00:00","nextEndTime":"2025/06/04 23:59:00","nextOnSales":1,"nextPrice":"","nextLocation":"臺北市士林區劍潭路1號","sourceWebName":"OPENTIX兩廳院文化生活","webSales":"https://www.opentix.life/program/1871745884606783488","district":"士林區"}},{"type":"Feature","geometry":{"type":"Point","coordinates":[121.524399267913,25.0847069488325]},"properties":{"title":"【相聲瓦舍】《狐說》","startDate":"2025/06/06","endDate":"2025/11/15","nextStartTime":"2025/06/06 19:30:00","nextEndTime":"2025/06/06 21:30:00","nextOnSales":1,"nextPrice":"","nextLocation":"臺北市士林區劍潭路1號","sourceWebName":"OPENTIX兩廳院文化生活","webSales":"https://www.opentix.life/program/1862330558182084609","district":"士林區"}},{"type":"Feature","geometry":{"type":"Point","coordinates":[121.5644327,25.0375417]},"properties":{"title":"2025臺北相聲大會","startDate":"2025/06/28","endDate":"2025/06/29","nextStartTime":"2025/06/28 14:30:00","nextEndTime":"2025/06/28 16:30:00","nextOnSales":1,"nextPrice":"","nextLocation":"臺北市信義區市府路1號2樓","sourceWebName":"OPENTIX兩廳院文化生活","webSales":"https://www.opentix.life/program/1887324257583464448","district":"信義區"}},{"type":"Feature","geometry":{"type":"Point","coordinates":[121.53490207369424,25.013614643862443]},"properties":{"title":"廣藝X盜火劇團《One Two Punch 痛感一擊》搖滾音樂劇","startDate":"2025/05/31","endDate":"2025/06/01","nextStartTime":"2025/05/31 19:30:00","nextEndTime":"2025/05/31 21:30:00","nextOnSales":1,"nextPrice":"","nextLocation":"臺北市中正區羅斯福路四段92號10樓","sourceWebName":"OPENTIX兩廳院文化生活","webSales":"https://www.opentix.life/program/1886691805860028417","district":"中正區"}},{"type":"Feature","geometry":{"type":"Point","coordinates":[121.5118362,25.031736]},"properties":{"title":"中國文化大學戲劇學系第60屆三年級學年公演《小鎮情緣の風流詐妻》","startDate":"2025/06/06","endDate":"2025/06/08","nextStartTime":"2025/06/06 19:30:00","nextEndTime":"2025/06/06 21:50:00","nextOnSales":1,"nextPrice":"","nextLocation":"臺北市中正區南海路47號","sourceWebName":"OPENTIX兩廳院文化生活","webSales":"https://www.opentix.life/program/1887344525358661633","district":"中正區"}},{"type":"Feature","geometry":{"type":"Point","coordinates":[121.5103053,25.0552408]},"properties":{"title":"【掌中戲】不貳偶劇《秦懷玉殺四門》","startDate":"2025/06/28","endDate":"2025/06/28","nextStartTime":"2025/06/28 14:00:00","nextEndTime":"2025/06/28 16:00:00","nextOnSales":1,"nextPrice":"","nextLocation":"臺北市大同區迪化街一段21號8樓","sourceWebName":"OPENTIX兩廳院文化生活","webSales":"https://www.opentix.life/program/1890244777774481409","district":"大同區"}},{"type":"Feature","geometry":{"type":"Point","coordinates":[121.5103053,25.0552408]},"properties":{"title":"2025 蓬瀛新韻 -『人生如寄』崑曲推廣展演","startDate":"2025/06/01","endDate":"2025/06/01","nextStartTime":"2025/06/01 14:00:00","nextEndTime":"2025/06/01 17:00:00","nextOnSales":1,"nextPrice":"","nextLocation":"臺北市大同區迪化街一段21號9樓","sourceWebName":"OPENTIX兩廳院文化生活","webSales":"https://www.opentix.life/program/1874989862335365121","district":"大同區"}},{"type":"Feature","geometry":{"type":"Point","coordinates":[121.5197787,25.1022766]},"properties":{"title":"拾音劇團《照常營業》","startDate":"2025/06/14","endDate":"2025/06/15","nextStartTime":"2025/06/14 14:30:00","nextEndTime":"2025/06/14 16:00:00","nextOnSales":1,"nextPrice":"","nextLocation":"臺北市士林區文林路751號","sourceWebName":"OPENTIX兩廳院文化生活","webSales":"https://www.opentix.life/program/1892048850705084417","district":"士林區"}},{"type":"Feature","geometry":{"type":"Point","coordinates":[121.5293005,25.0432788]},"properties":{"title":"2025長義閣掌中劇團-銳劇場《神木之心》","startDate":"2025/06/27","endDate":"2025/06/29","nextStartTime":"2025/06/27 19:30:00","nextEndTime":"2025/06/27 20:30:00","nextOnSales":1,"nextPrice":"","nextLocation":"臺北市中正區八德路一段1號","sourceWebName":"OPENTIX兩廳院文化生活","webSales":"https://www.opentix.life/program/1895006803191488513","district":"中正區"}},{"type":"Feature","geometry":{"type":"Point","coordinates":[121.524399267913,25.0847069488325]},"properties":{"title":"唱歌集《呱於醜小鴨變成搖滾巨星的那件事》搖滾親子音樂劇","startDate":"2025/06/28","endDate":"2025/09/20","nextStartTime":"2025/06/28 14:30:00","nextEndTime":"2025/06/28 16:30:00","nextOnSales":1,"nextPrice":"","nextLocation":"臺北市士林區劍潭路1號","sourceWebName":"OPENTIX兩廳院文化生活","webSales":"https://www.opentix.life/program/1894991277992734721","district":"士林區"}},{"type":"Feature","geometry":{"type":"Point","coordinates":[121.5197787,25.1022766]},"properties":{"title":"2025傳藝金曲劇展：真快樂掌中劇團《王爺飯》","startDate":"2025/06/27","endDate":"2025/06/29","nextStartTime":"2025/06/27 19:30:00","nextEndTime":"2025/06/27 20:45:00","nextOnSales":1,"nextPrice":"","nextLocation":"臺北市士林區文林路751號","sourceWebName":"OPENTIX兩廳院文化生活","webSales":"https://www.opentix.life/program/1897223632682864640","district":"士林區"}},{"type":"Feature","geometry":{"type":"Point","coordinates":[121.55146145758658,25.04861453425399]},"properties":{"title":"辜公亮文教基金會2025春季公演  《宏碧緣》《清輝朗照》","startDate":"2025/06/07","endDate":"2025/06/08","nextStartTime":"2025/06/07 14:30:00","nextEndTime":"2025/06/07 17:00:00","nextOnSales":1,"nextPrice":"","nextLocation":"臺北市松山區八德路三段25號","sourceWebName":"OPENTIX兩廳院文化生活","webSales":"https://www.opentix.life/program/1897126851595137025","district":"松山區"}},{"type":"Feature","geometry":{"type":"Point","coordinates":[121.53812417236932,25.014656376535928]},"properties":{"title":"赭月製作 原創音樂劇《台北莉莉絲》","startDate":"2025/06/28","endDate":"2025/07/06","nextStartTime":"2025/06/28 14:30:00","nextEndTime":"2025/06/28 16:30:00","nextOnSales":1,"nextPrice":"","nextLocation":"臺北市大安區羅斯福路四段1號臺灣大學禮賢樓B1","sourceWebName":"OPENTIX兩廳院文化生活","webSales":"https://www.opentix.life/program/1896771371752419328","district":"大安區"}},{"type":"Feature","geometry":{"type":"Point","coordinates":[121.55146145758658,25.04861453425399]},"properties":{"title":"原典版《牡丹亭》","startDate":"2025/06/01","endDate":"2025/06/01","nextStartTime":"2025/06/01 14:30:00","nextEndTime":"2025/06/01 17:05:00","nextOnSales":1,"nextPrice":"","nextLocation":"臺北市松山區八德路三段25號","sourceWebName":"OPENTIX兩廳院文化生活","webSales":"https://www.opentix.life/program/1899403225175740417","district":"松山區"}},{"type":"Feature","geometry":{"type":"Point","coordinates":[121.5256749,25.0196669]},"properties":{"title":"2025暴羅WALK《成功登陸臺南的外來人》臺北場","startDate":"2025/05/31","endDate":"2025/06/01","nextStartTime":"2025/05/31 19:30:00","nextEndTime":"2025/05/31 21:10:00","nextOnSales":1,"nextPrice":"","nextLocation":"臺北市中正區汀州路三段2號","sourceWebName":"OPENTIX兩廳院文化生活","webSales":"https://www.opentix.life/program/1900077333380952065","district":"中正區"}},{"type":"Feature","geometry":{"type":"Point","coordinates":[121.524399267913,25.0847069488325]},"properties":{"title":"表坊四十《這一夜，誰來說相聲？》","startDate":"2025/06/13","endDate":"2025/06/28","nextStartTime":"2025/06/13 19:30:00","nextEndTime":"2025/06/13 22:30:00","nextOnSales":1,"nextPrice":"","nextLocation":"臺北市士林區劍潭路1號","sourceWebName":"OPENTIX兩廳院文化生活","webSales":"https://www.opentix.life/program/1897604278846943232","district":"士林區"}},{"type":"Feature","geometry":{"type":"Point","coordinates":[121.53490207369424,25.013614643862443]},"properties":{"title":"楊景翔演劇團《蘑菇》","startDate":"2025/06/06","endDate":"2025/06/22","nextStartTime":"2025/06/06 19:30:00","nextEndTime":"2025/06/06 21:00:00","nextOnSales":1,"nextPrice":"","nextLocation":"臺北市中正區羅斯福路四段92號10樓","sourceWebName":"OPENTIX兩廳院文化生活","webSales":"https://www.opentix.life/program/1899346944114614273","district":"中正區"}},{"type":"Feature","geometry":{"type":"Point","coordinates":[121.5197787,25.1022766]},"properties":{"title":"義興閣掌中劇團《豆花公劇場版－拍斷手骨顛倒勇》","startDate":"2025/06/07","endDate":"2025/06/07","nextStartTime":"2025/06/07 10:30:00","nextEndTime":"2025/06/07 11:50:00","nextOnSales":1,"nextPrice":"","nextLocation":"臺北市士林區文林路751號","sourceWebName":"OPENTIX兩廳院文化生活","webSales":"https://www.opentix.life/program/1900450254400311297","district":"士林區"}},{"type":"Feature","geometry":{"type":"Point","coordinates":[121.53870879773767,25.038935993243346]},"properties":{"title":"《老闆～來碗陽春麵！》","startDate":"2025/06/06","endDate":"2025/06/22","nextStartTime":"2025/06/06 19:30:00","nextEndTime":"2025/06/06 20:40:00","nextOnSales":1,"nextPrice":"","nextLocation":"臺北市大安區建國南路一段177號","sourceWebName":"OPENTIX兩廳院文化生活","webSales":"https://www.opentix.life/program/1902249448070131713","district":"大安區"}},{"type":"Feature","geometry":{"type":"Point","coordinates":[121.55146145758658,25.04861453425399]},"properties":{"title":"【真劇場京選．金鑣黃天霸】","startDate":"2025/06/14","endDate":"2025/06/15","nextStartTime":"2025/06/14 14:30:00","nextEndTime":"2025/06/14 17:00:00","nextOnSales":1,"nextPrice":"","nextLocation":"臺北市松山區八德路三段25號","sourceWebName":"OPENTIX兩廳院文化生活","webSales":"https://www.opentix.life/program/1902977152750923777","district":"松山區"}},{"type":"Feature","geometry":{"type":"Point","coordinates":[121.51862076759792,25.035109625324957]},"properties":{"title":"2025新點子實驗場 曾彥婷 《煉丹場》","startDate":"2025/06/20","endDate":"2025/06/22","nextStartTime":"2025/06/20 19:30:00","nextEndTime":"2025/06/20 21:00:00","nextOnSales":1,"nextPrice":"","nextLocation":"臺北市中正區中山南路21-1號","sourceWebName":"OPENTIX兩廳院文化生活","webSales":"https://www.opentix.life/program/1895023736410050561","district":"中正區"}},{"type":"Feature","geometry":{"type":"Point","coordinates":[121.5293005,25.0432788]},"properties":{"title":"《上樑_下工後的修羅場》","startDate":"2025/06/05","endDate":"2025/06/08","nextStartTime":"2025/06/05 19:30:00","nextEndTime":"2025/06/05 20:35:00","nextOnSales":1,"nextPrice":"","nextLocation":"臺北市中正區八德路一段1號","sourceWebName":"OPENTIX兩廳院文化生活","webSales":"https://www.opentix.life/program/1901830567478235136","district":"中正區"}},{"type":"Feature","geometry":{"type":"Point","coordinates":[121.469734695503,25.1319315509446]},"properties":{"title":"2025關渡藝術節──《流浪樹》山峸製作設計Ｘ日本52PRO！劇團","startDate":"2025/06/26","endDate":"2025/06/29","nextStartTime":"2025/06/26 19:30:00","nextEndTime":"2025/06/26 21:30:00","nextOnSales":1,"nextPrice":"","nextLocation":"臺北市北投區學園路1號","sourceWebName":"OPENTIX兩廳院文化生活","webSales":"https://www.opentix.life/program/1904807056871972864","district":"北投區"}},{"type":"Feature","geometry":{"type":"Point","coordinates":[121.5232619,25.0578246]},"properties":{"title":"董以安首部solo作品《小明的日記》","startDate":"2025/05/31","endDate":"2025/06/01","nextStartTime":"2025/05/31 19:30:00","nextEndTime":"2025/05/31 20:45:00","nextOnSales":1,"nextPrice":"","nextLocation":"臺北市中山區民生東路一段6號5樓","sourceWebName":"OPENTIX兩廳院文化生活","webSales":"https://www.opentix.life/program/1905189120549855233","district":"中山區"}},{"type":"Feature","geometry":{"type":"Point","coordinates":[120.682756,24.155298]},"properties":{"title":"《同學會！同鞋～》十週年巡迴","startDate":"2025/06/21","endDate":"2025/09/21","nextStartTime":"2025/06/27 19:30:00","nextEndTime":"2025/06/27 22:30:00","nextOnSales":1,"nextPrice":"","nextLocation":"臺北市士林區劍潭路1號","sourceWebName":"OPENTIX兩廳院文化生活","webSales":"https://www.opentix.life/program/1900750274760032257","district":"士林區"}},{"type":"Feature","geometry":{"type":"Point","coordinates":[121.5256749,25.0196669]},"properties":{"title":"嚎哮排演《兇宅》嘉年華：雙戲連映，雙喜臨門","startDate":"2025/06/13","endDate":"2025/06/15","nextStartTime":"2025/06/13 19:30:00","nextEndTime":"2025/06/13 21:00:00","nextOnSales":1,"nextPrice":"","nextLocation":"臺北市中正區汀州路三段2號","sourceWebName":"OPENTIX兩廳院文化生活","webSales":"https://www.opentix.life/program/1904818601270865921","district":"中正區"}},{"type":"Feature","geometry":{"type":"Point","coordinates":[121.5149255,25.0311993]},"properties":{"title":"喜劇特急：第1彈《喜劇見習生》","startDate":"2025/06/07","endDate":"2025/06/08","nextStartTime":"2025/06/07 14:30:00","nextEndTime":"2025/06/07 16:00:00","nextOnSales":1,"nextPrice":"","nextLocation":"臺北市中正區重慶南路二段51號B1","sourceWebName":"OPENTIX兩廳院文化生活","webSales":"https://www.opentix.life/program/1904022507123302400","district":"中正區"}},{"type":"Feature","geometry":{"type":"Point","coordinates":[121.58265189243726,25.04685474155385]},"properties":{"title":"嚎哮排演《別叫我成功》LIVE 演唱會","startDate":"2025/06/07","endDate":"2025/06/08","nextStartTime":"2025/06/07 13:30:00","nextEndTime":"2025/06/07 15:00:00","nextOnSales":1,"nextPrice":"","nextLocation":"臺北市南港區忠孝東路六段21號1樓","sourceWebName":"OPENTIX兩廳院文化生活","webSales":"https://www.opentix.life/program/1913051937881788417","district":"南港區"}},{"type":"Feature","geometry":{"type":"Point","coordinates":[121.5243992779115,25.084774880260838]},"properties":{"title":"2025 原創中文音樂劇【熱蘭遮:刺桐花開時】","startDate":"2025/06/20","endDate":"2025/06/29","nextStartTime":"2025/06/20 19:30:00","nextEndTime":"2025/06/20 22:20:00","nextOnSales":1,"nextPrice":"","nextLocation":"臺北市士林區劍潭路1號","sourceWebName":"OPENTIX兩廳院文化生活","webSales":"https://www.opentix.life/program/1901803093113507841","district":"士林區"}},{"type":"Feature","geometry":{"type":"Point","coordinates":[121.53812417236932,25.014656376535928]},"properties":{"title":"烏犬劇場《你說的我不相信》","startDate":"2025/06/20","endDate":"2025/06/22","nextStartTime":"2025/06/20 19:30:00","nextEndTime":"2025/06/20 20:45:00","nextOnSales":1,"nextPrice":"","nextLocation":"臺北市大安區羅斯福路四段1號臺灣大學禮賢樓B1","sourceWebName":"OPENTIX兩廳院文化生活","webSales":"https://www.opentix.life/program/1910526070627110912","district":"大安區"}},{"type":"Feature","geometry":{"type":"Point","coordinates":[121.5197787,25.1022766]},"properties":{"title":"劇聚句","startDate":"2025/05/31","endDate":"2025/06/01","nextStartTime":"2025/05/31 19:30:00","nextEndTime":"2025/05/31 21:30:00","nextOnSales":1,"nextPrice":"","nextLocation":"臺北市士林區文林路751號","sourceWebName":"OPENTIX兩廳院文化生活","webSales":"https://www.opentix.life/program/1910609984825438209","district":"士林區"}},{"type":"Feature","geometry":{"type":"Point","coordinates":[121.5153386,25.0317357]},"properties":{"title":"《還沒有名字的故事》","startDate":"2025/06/19","endDate":"2025/06/21","nextStartTime":"2025/06/19 19:30:00","nextEndTime":"2025/06/19 20:30:00","nextOnSales":1,"nextPrice":"","nextLocation":"臺北市中正區牯嶺街5巷2號","sourceWebName":"OPENTIX兩廳院文化生活","webSales":"https://www.opentix.life/program/1917430100310405121","district":"中正區"}},{"type":"Feature","geometry":{"type":"Point","coordinates":[121.5196346,25.1023211]},"properties":{"title":"中國文化大學中國戲劇學系第50屆畢業公演《劇聚句》","startDate":"2025/05/31","endDate":"2025/06/01","nextStartTime":"2025/05/31 19:30:00","nextEndTime":"2025/05/31 19:30:00","nextOnSales":1,"nextPrice":"新臺幣400、600、800、1000元","nextLocation":"臺北市士林區文林路751號","sourceWebName":"藝文活動報名平台","webSales":"https://www.opentix.life/event/1910609984825438209","district":"士林區"}},{"type":"Feature","geometry":{"type":"Point","coordinates":[121.5153386,25.0317357]},"properties":{"title":"罪後幽默","startDate":"2025/06/27","endDate":"2025/06/29","nextStartTime":"2025/06/27 19:30:00","nextEndTime":"2025/06/27 21:30:00","nextOnSales":1,"nextPrice":"","nextLocation":"臺北市中正區牯嶺街5巷2號","sourceWebName":"OPENTIX兩廳院文化生活","webSales":"https://www.opentix.life/program/1920001411778433025","district":"中正區"}},{"type":"Feature","geometry":{"type":"Point","coordinates":[121.5278783057504,25.02382402998406]},"properties":{"title":"《鏡中獨白》","startDate":"2025/06/13","endDate":"2025/06/22","nextStartTime":"2025/06/13 18:45:00","nextEndTime":"2025/06/13 19:30:00","nextOnSales":1,"nextPrice":"","nextLocation":"臺北市大安區雲和街11號","sourceWebName":"OPENTIX兩廳院文化生活","webSales":"https://www.opentix.life/program/1922236655511212033","district":"大安區"}},{"type":"Feature","geometry":{"type":"Point","coordinates":[121.5196346,25.1023211]},"properties":{"title":"114年度臺北木偶劇團《親子布袋戲專場》","startDate":"2025/06/08","endDate":"2025/06/08","nextStartTime":"2025/06/08 10:30:00","nextEndTime":"2025/06/08 10:30:00","nextOnSales":1,"nextPrice":"新臺幣100元","nextLocation":"臺北市士林區文林路751號","sourceWebName":"藝文活動報名平台","webSales":"https://www.opentix.life/event/1916694174211817473","district":"士林區"}},{"type":"Feature","geometry":{"type":"Point","coordinates":[121.51862076759792,25.035109625324957]},"properties":{"title":"首爾藝術團大師講座：談音樂劇《一千種藍》製作暨影像設計","startDate":"2025/06/14","endDate":"2025/06/14","nextStartTime":"2025/06/14 14:30:00","nextEndTime":"2025/06/14 16:00:00","nextOnSales":1,"nextPrice":"","nextLocation":"臺北市中正區中山南路21-1號","sourceWebName":"OPENTIX兩廳院文化生活","webSales":"https://www.opentix.life/program/1924350541053583361","district":"中正區"}},{"type":"Feature","geometry":{"type":"Point","coordinates":[121.51817396100923,25.035357131907]},"properties":{"title":"2025新點子實驗場 蒂摩爾古薪舞集 巴魯．瑪迪霖 《排彎動物園》","startDate":"2025/06/07","endDate":"2025/06/08","nextStartTime":"2025/06/07 19:30:00","nextEndTime":"2025/06/07 20:40:00","nextOnSales":1,"nextPrice":"","nextLocation":"臺北市中正區中山南路21之1號，愛國東路側","sourceWebName":"OPENTIX兩廳院文化生活","webSales":"https://www.opentix.life/program/1894587053180948481","district":"中正區"}},{"type":"Feature","geometry":{"type":"Point","coordinates":[121.5243992779115,25.084774880260838]},"properties":{"title":"身體處方 莊博翔《非普通服務》","startDate":"2025/06/13","endDate":"2025/06/14","nextStartTime":"2025/06/13 19:30:00","nextEndTime":"2025/06/13 20:15:00","nextOnSales":1,"nextPrice":"","nextLocation":"臺北市士林區劍潭路1號","sourceWebName":"OPENTIX兩廳院文化生活","webSales":"https://www.opentix.life/program/1904518508030468096","district":"士林區"}},{"type":"Feature","geometry":{"type":"Point","coordinates":[121.524399267913,25.0847069488325]},"properties":{"title":"民族舞劇《紅樓夢》","startDate":"2025/06/19","endDate":"2025/06/22","nextStartTime":"2025/06/19 19:30:00","nextEndTime":"2025/06/19 21:50:00","nextOnSales":1,"nextPrice":"","nextLocation":"臺北市士林區劍潭路1號","sourceWebName":"OPENTIX兩廳院文化生活","webSales":"https://www.opentix.life/program/1906635946406715392","district":"士林區"}},{"type":"Feature","geometry":{"type":"Point","coordinates":[121.5072876,25.04214]},"properties":{"title":"第八月台","startDate":"2025/06/07","endDate":"2025/06/08","nextStartTime":"2025/06/07 17:00:00","nextEndTime":"2025/06/07 18:00:00","nextOnSales":1,"nextPrice":"","nextLocation":"臺北市萬華區成都路10號","sourceWebName":"OPENTIX兩廳院文化生活","webSales":"https://www.opentix.life/program/1911415768349356033","district":"萬華區"}},{"type":"Feature","geometry":{"type":"Point","coordinates":[121.5153386,25.0317357]},"properties":{"title":"三","startDate":"2025/06/06","endDate":"2025/06/08","nextStartTime":"2025/06/06 19:30:00","nextEndTime":"2025/06/06 20:20:00","nextOnSales":1,"nextPrice":"","nextLocation":"臺北市中正區牯嶺街5巷2號","sourceWebName":"OPENTIX兩廳院文化生活","webSales":"https://www.opentix.life/program/1909811329616035840","district":"中正區"}},{"type":"Feature","geometry":{"type":"Point","coordinates":[121.5142953,25.0356043]},"properties":{"title":"臺北市立大學舞蹈學系111級碩士班畢業製作 林姿蓉X曾于瑄X楊巧茵 聯合製作《絲縷》","startDate":"2025/05/31","endDate":"2025/05/31","nextStartTime":"2025/05/31 19:30:00","nextEndTime":"2025/05/31 21:00:00","nextOnSales":1,"nextPrice":"","nextLocation":"臺北市中正區愛國西路1號","sourceWebName":"OPENTIX兩廳院文化生活","webSales":"https://www.opentix.life/program/1909940860292698113","district":"中正區"}},{"type":"Feature","geometry":{"type":"Point","coordinates":[121.469734695503,25.1319315509446]},"properties":{"title":"邱瑋耀x陳韻帆x羅予晴  「重來，搖擺一次」","startDate":"2025/06/21","endDate":"2025/06/22","nextStartTime":"2025/06/21 19:30:00","nextEndTime":"2025/06/21 21:10:00","nextOnSales":1,"nextPrice":"","nextLocation":"臺北市北投區學園路1號","sourceWebName":"OPENTIX兩廳院文化生活","webSales":"https://www.opentix.life/program/1913129585211412481","district":"北投區"}},{"type":"Feature","geometry":{"type":"Point","coordinates":[121.469581622551,25.1319426267538]},"properties":{"title":"鷹","startDate":"2025/06/07","endDate":"2025/06/08","nextStartTime":"2025/06/07 19:30:00","nextEndTime":"2025/06/07 20:25:00","nextOnSales":1,"nextPrice":"","nextLocation":"臺北市北投區學園路1號","sourceWebName":"OPENTIX兩廳院文化生活","webSales":"https://www.opentix.life/program/1913126581500178433","district":"北投區"}},{"type":"Feature","geometry":{"type":"Point","coordinates":[120.4320497,23.5441881]},"properties":{"title":"《Share&Rhythm踢踏經典再現！》巡迴版","startDate":"2025/06/07","endDate":"2025/08/09","nextStartTime":"2025/06/18 19:30:00","nextEndTime":"2025/06/18 20:30:00","nextOnSales":1,"nextPrice":"","nextLocation":"臺北市中正區八德路一段1號","sourceWebName":"OPENTIX兩廳院文化生活","webSales":"https://www.opentix.life/program/1909514926913978369","district":"中正區"}},{"type":"Feature","geometry":{"type":"Point","coordinates":[121.519047,25.0367564]},"properties":{"title":"「畫出性別界限，勇敢Say No」114年性平推廣活動(免費參加)","startDate":"2025/06/07","endDate":"2025/06/07","nextStartTime":"2025/06/07 14:00:00","nextEndTime":"2025/06/07 14:00:00","nextOnSales":0,"nextPrice":"","nextLocation":"臺北市中正區中山南路21號","sourceWebName":"藝文活動報名平台","webSales":"https://event.culture.tw/mocweb/reg/CKSMH/Detail.init.ctr?actId=50529","district":"中正區"}},{"type":"Feature","geometry":{"type":"Point","coordinates":[121.5411678,24.9920754]},"properties":{"title":"超魔幻東風劇場《愛麗絲：東方夢遊》","startDate":"2025/06/06","endDate":"2025/06/08","nextStartTime":"2025/06/06 19:30:00","nextEndTime":"2025/06/06 21:00:00","nextOnSales":1,"nextPrice":"","nextLocation":"臺北市文山區景文街32號，捷運景美站1號出口","sourceWebName":"OPENTIX兩廳院文化生活","webSales":"https://www.opentix.life/program/1889607603953524737","district":"文山區"}},{"type":"Feature","geometry":{"type":"Point","coordinates":[121.5613359,25.0477411]},"properties":{"title":"《翻轉童話系列-大野狼壞壞！？》","startDate":"2025/06/01","endDate":"2025/06/01","nextStartTime":"2025/06/01 11:00:00","nextEndTime":"2025/06/01 12:00:00","nextOnSales":1,"nextPrice":"","nextLocation":"臺北市松山區市民大道五段99號4樓","sourceWebName":"OPENTIX兩廳院文化生活","webSales":"https://www.opentix.life/program/1896831500573966337","district":"松山區"}},{"type":"Feature","geometry":{"type":"Point","coordinates":[121.5411678,24.9920754]},"properties":{"title":"創造焦點《小丑八怪-廚房篇overcooked》","startDate":"2025/06/20","endDate":"2025/06/22","nextStartTime":"2025/06/20 19:30:00","nextEndTime":"2025/06/20 21:00:00","nextOnSales":1,"nextPrice":"","nextLocation":"臺北市文山區景文街32號，捷運景美站1號出口","sourceWebName":"OPENTIX兩廳院文化生活","webSales":"https://www.opentix.life/program/1895036375459377153","district":"文山區"}},{"type":"Feature","geometry":{"type":"Point","coordinates":[121.5411678,24.9920754]},"properties":{"title":"陪你長大工作室劇團《山珍海味吃飽了沒》","startDate":"2025/06/27","endDate":"2025/06/29","nextStartTime":"2025/06/27 19:30:00","nextEndTime":"2025/06/27 21:00:00","nextOnSales":1,"nextPrice":"","nextLocation":"臺北市文山區景文街32號，捷運景美站1號出口","sourceWebName":"OPENTIX兩廳院文化生活","webSales":"https://www.opentix.life/program/1902281389335527424","district":"文山區"}},{"type":"Feature","geometry":{"type":"Point","coordinates":[121.5444033,25.0418439]},"properties":{"title":"2025 享象【夏季 • 爵士親子派對】","startDate":"2025/06/01","endDate":"2025/06/01","nextStartTime":"2025/06/01 11:00:00","nextEndTime":"2025/06/01 11:50:00","nextOnSales":1,"nextPrice":"","nextLocation":"臺北市大安區忠孝東路四段15號5樓之3","sourceWebName":"OPENTIX兩廳院文化生活","webSales":"https://www.opentix.life/program/1904824971043020801","district":"大安區"}},{"type":"Feature","geometry":{"type":"Point","coordinates":[121.5099947,25.0546552]},"properties":{"title":"動物歷險記 -《彼得與狼》&《動物狂歡節》","startDate":"2025/06/01","endDate":"2025/08/03","nextStartTime":"2025/06/01 14:30:00","nextEndTime":"2025/06/01 15:30:00","nextOnSales":1,"nextPrice":"","nextLocation":"臺北市大同區迪化街一段34-1號3樓","sourceWebName":"OPENTIX兩廳院文化生活","webSales":"https://www.opentix.life/program/1910520239659266049","district":"大同區"}},{"type":"Feature","geometry":{"type":"Point","coordinates":[121.55146145758658,25.04861453425399]},"properties":{"title":"【TCO】《叮叮！時光音樂盒》親子音樂會","startDate":"2025/06/21","endDate":"2025/06/22","nextStartTime":"2025/06/21 10:30:00","nextEndTime":"2025/06/21 11:30:00","nextOnSales":1,"nextPrice":"","nextLocation":"臺北市松山區八德路三段25號","sourceWebName":"OPENTIX兩廳院文化生活","webSales":"https://www.opentix.life/program/1911743615437131777","district":"松山區"}},{"type":"Feature","geometry":{"type":"Point","coordinates":[121.51787631065513,25.034753768266633]},"properties":{"title":"聚陽文教基金會《蘋果甜蜜蜜》親子繪本說故事","startDate":"2025/06/28","endDate":"2025/07/06","nextStartTime":"2025/06/28 10:00:00","nextEndTime":"2025/06/28 10:50:00","nextOnSales":1,"nextPrice":"","nextLocation":"臺北市中正區中山南路21-1號，國家戲劇院B1","sourceWebName":"OPENTIX兩廳院文化生活","webSales":"https://www.opentix.life/program/1909903983505235969","district":"中正區"}},{"type":"Feature","geometry":{"type":"Point","coordinates":[121.5197787,25.1022766]},"properties":{"title":"泰北高中演藝科第6屆畢業展暨科展—藝表人才","startDate":"2025/06/06","endDate":"2025/06/08","nextStartTime":"2025/06/06 19:30:00","nextEndTime":"2025/06/06 21:30:00","nextOnSales":1,"nextPrice":"","nextLocation":"臺北市士林區文林路751號","sourceWebName":"OPENTIX兩廳院文化生活","webSales":"https://www.opentix.life/program/1917921290868797441","district":"士林區"}},{"type":"Feature","geometry":{"type":"Point","coordinates":[121.5159774,25.0331483]},"properties":{"title":"【環教課程假日場】植物調查員-馬丁博士找小樟","startDate":"2025/06/07","endDate":"2025/06/07","nextStartTime":"2025/06/07 13:30:00","nextEndTime":"2025/06/07 13:30:00","nextOnSales":0,"nextPrice":"","nextLocation":"臺北市中正區南昌路一段1號","sourceWebName":"藝文活動報名平台","webSales":"https://event.culture.tw/mocweb/reg/NTM/Detail.init.ctr?actId=50080","district":"中正區"}},{"type":"Feature","geometry":{"type":"Point","coordinates":[121.524399267913,25.0847069488325]},"properties":{"title":"臺北表演藝術中心：專人定時導覽","startDate":"2025/06/03","endDate":"2025/06/25","nextStartTime":"2025/06/03 14:00:00","nextEndTime":"2025/06/03 15:00:00","nextOnSales":1,"nextPrice":"","nextLocation":"臺北市士林區劍潭路1號","sourceWebName":"OPENTIX兩廳院文化生活","webSales":"https://www.opentix.life/program/1876116102547427328","district":"士林區"}},{"type":"Feature","geometry":{"type":"Point","coordinates":[121.524399267913,25.0847069488325]},"properties":{"title":"《漂浮北藝，微糖少冰》VR虛擬實境","startDate":"2025/06/03","endDate":"2025/06/26","nextStartTime":"2025/06/03 14:30:00","nextEndTime":"2025/06/03 14:45:00","nextOnSales":1,"nextPrice":"","nextLocation":"臺北市士林區劍潭路1號","sourceWebName":"OPENTIX兩廳院文化生活","webSales":"https://www.opentix.life/program/1876520973776371712","district":"士林區"}},{"type":"Feature","geometry":{"type":"Point","coordinates":[121.524367,25.0851489]},"properties":{"title":"【北藝學院 戲劇構作開放課程】胡曉真：古典小說與詐騙修辭學","startDate":"2025/06/10","endDate":"2025/06/10","nextStartTime":"2025/06/10 19:30:00","nextEndTime":"2025/06/10 21:30:00","nextOnSales":1,"nextPrice":"","nextLocation":"臺北市士林區劍潭路1號","sourceWebName":"OPENTIX兩廳院文化生活","webSales":"https://www.opentix.life/program/1888846539483951104","district":"士林區"}},{"type":"Feature","geometry":{"type":"Point","coordinates":[121.519047,25.0367564]},"properties":{"title":"【工作坊】打破性別框架的即興探索─戲劇工作坊","startDate":"2025/06/21","endDate":"2025/06/21","nextStartTime":"2025/06/21 14:00:00","nextEndTime":"2025/06/21 14:00:00","nextOnSales":1,"nextPrice":"200","nextLocation":"臺北市中正區中山南路21號","sourceWebName":"藝文活動報名平台","webSales":"https://event.culture.tw/mocweb/reg/CKSMH/Detail.init.ctr?actId=50743","district":"中正區"}},{"type":"Feature","geometry":{"type":"Point","coordinates":[121.5284951,25.0412111]},"properties":{"title":"【臺灣文學基地】駐村作家拉德卡（Radka Denemarková）系列活動｜活在真相中（臺北）","startDate":"2025/06/07","endDate":"2025/06/14","nextStartTime":"2025/06/07 14:00:00","nextEndTime":"2025/06/07 14:00:00","nextOnSales":0,"nextPrice":"","nextLocation":"臺北市中正區濟南路二段27號","sourceWebName":"藝文活動報名平台","webSales":"https://event.culture.tw/mocweb/reg/NMTL/Detail.init.ctr?actId=50096","district":"中正區"}},{"type":"Feature","geometry":{"type":"Point","coordinates":[121.522156182259,25.0532873706057]},"properties":{"title":"幻影枕邊書","startDate":"2025/06/01","endDate":"2025/06/01","nextStartTime":"2025/06/01 11:00:00","nextEndTime":"2025/06/01 12:34:00","nextOnSales":1,"nextPrice":"","nextLocation":"臺北市中山區中山北路二段18號","sourceWebName":"OPENTIX兩廳院文化生活","webSales":"https://www.opentix.life/program/1915378250891440129","district":"中山區"}},{"type":"Feature","geometry":{"type":"Point","coordinates":[121.5293005,25.0432788]},"properties":{"title":"末世之城","startDate":"2025/06/03","endDate":"2025/06/03","nextStartTime":"2025/06/03 16:20:00","nextEndTime":"2025/06/03 17:49:00","nextOnSales":1,"nextPrice":"","nextLocation":"臺北市中正區八德路一段1號","sourceWebName":"OPENTIX兩廳院文化生活","webSales":"https://www.opentix.life/program/1915372080973787136","district":"中正區"}},{"type":"Feature","geometry":{"type":"Point","coordinates":[121.522156182259,25.0532873706057]},"properties":{"title":"奧菲莉亞不沉沒","startDate":"2025/06/01","endDate":"2025/06/01","nextStartTime":"2025/06/01 17:05:00","nextEndTime":"2025/06/01 18:35:00","nextOnSales":1,"nextPrice":"","nextLocation":"臺北市中山區中山北路二段18號","sourceWebName":"OPENTIX兩廳院文化生活","webSales":"https://www.opentix.life/program/1915367950776864769","district":"中山區"}},{"type":"Feature","geometry":{"type":"Point","coordinates":[121.522156182259,25.0532873706057]},"properties":{"title":"希特勒的私人圖書館","startDate":"2025/06/01","endDate":"2025/06/04","nextStartTime":"2025/06/01 15:10:00","nextEndTime":"2025/06/01 16:42:00","nextOnSales":1,"nextPrice":"","nextLocation":"臺北市中山區中山北路二段18號","sourceWebName":"OPENTIX兩廳院文化生活","webSales":"https://www.opentix.life/program/1915363273765859329","district":"中山區"}},{"type":"Feature","geometry":{"type":"Point","coordinates":[121.522156182259,25.0532873706057]},"properties":{"title":"湯瑪斯曼:騙術與自白","startDate":"2025/05/31","endDate":"2025/06/02","nextStartTime":"2025/05/31 17:25:00","nextEndTime":"2025/05/31 18:56:00","nextOnSales":1,"nextPrice":"","nextLocation":"臺北市中山區中山北路二段18號","sourceWebName":"OPENTIX兩廳院文化生活","webSales":"https://www.opentix.life/program/1915353042011623424","district":"中山區"}},{"type":"Feature","geometry":{"type":"Point","coordinates":[121.5293005,25.0432788]},"properties":{"title":"一個和四個","startDate":"2025/06/02","endDate":"2025/06/02","nextStartTime":"2025/06/02 17:30:00","nextEndTime":"2025/06/02 18:58:00","nextOnSales":1,"nextPrice":"","nextLocation":"臺北市中正區八德路一段1號","sourceWebName":"OPENTIX兩廳院文化生活","webSales":"https://www.opentix.life/program/1915343649481314305","district":"中正區"}},{"type":"Feature","geometry":{"type":"Point","coordinates":[121.5293005,25.0432788]},"properties":{"title":"靜靜的嘛呢石","startDate":"2025/06/03","endDate":"2025/06/03","nextStartTime":"2025/06/03 18:10:00","nextEndTime":"2025/06/03 19:52:00","nextOnSales":1,"nextPrice":"","nextLocation":"臺北市中正區八德路一段1號","sourceWebName":"OPENTIX兩廳院文化生活","webSales":"https://www.opentix.life/program/1915339837896716289","district":"中正區"}},{"type":"Feature","geometry":{"type":"Point","coordinates":[121.5293005,25.0432788]},"properties":{"title":"尋找智美更登","startDate":"2025/06/04","endDate":"2025/06/04","nextStartTime":"2025/06/04 21:35:00","nextEndTime":"2025/06/04 23:27:00","nextOnSales":1,"nextPrice":"","nextLocation":"臺北市中正區八德路一段1號","sourceWebName":"OPENTIX兩廳院文化生活","webSales":"https://www.opentix.life/program/1915336683931103233","district":"中正區"}},{"type":"Feature","geometry":{"type":"Point","coordinates":[121.5293005,25.0432788]},"properties":{"title":"老狗","startDate":"2025/06/05","endDate":"2025/06/05","nextStartTime":"2025/06/05 21:50:00","nextEndTime":"2025/06/05 23:18:00","nextOnSales":1,"nextPrice":"","nextLocation":"臺北市中正區八德路一段1號","sourceWebName":"OPENTIX兩廳院文化生活","webSales":"https://www.opentix.life/program/1915333253263970305","district":"中正區"}},{"type":"Feature","geometry":{"type":"Point","coordinates":[121.5293005,25.0432788]},"properties":{"title":"五彩神箭","startDate":"2025/06/05","endDate":"2025/06/05","nextStartTime":"2025/06/05 17:25:00","nextEndTime":"2025/06/05 19:01:00","nextOnSales":1,"nextPrice":"","nextLocation":"臺北市中正區八德路一段1號","sourceWebName":"OPENTIX兩廳院文化生活","webSales":"https://www.opentix.life/program/1915328667087687680","district":"中正區"}},{"type":"Feature","geometry":{"type":"Point","coordinates":[121.5293005,25.0432788]},"properties":{"title":"塔洛","startDate":"2025/06/05","endDate":"2025/06/05","nextStartTime":"2025/06/05 19:25:00","nextEndTime":"2025/06/05 21:28:00","nextOnSales":1,"nextPrice":"","nextLocation":"臺北市中正區八德路一段1號","sourceWebName":"OPENTIX兩廳院文化生活","webSales":"https://www.opentix.life/program/1915320167382454273","district":"中正區"}},{"type":"Feature","geometry":{"type":"Point","coordinates":[121.5293005,25.0432788]},"properties":{"title":"撞死了一隻羊","startDate":"2025/06/03","endDate":"2025/06/03","nextStartTime":"2025/06/03 20:15:00","nextEndTime":"2025/06/03 21:41:00","nextOnSales":1,"nextPrice":"","nextLocation":"臺北市中正區八德路一段1號","sourceWebName":"OPENTIX兩廳院文化生活","webSales":"https://www.opentix.life/program/1915316462050668545","district":"中正區"}},{"type":"Feature","geometry":{"type":"Point","coordinates":[121.5293005,25.0432788]},"properties":{"title":"氣球","startDate":"2025/06/02","endDate":"2025/06/02","nextStartTime":"2025/06/02 19:30:00","nextEndTime":"2025/06/02 21:12:00","nextOnSales":1,"nextPrice":"","nextLocation":"臺北市中正區八德路一段1號","sourceWebName":"OPENTIX兩廳院文化生活","webSales":"https://www.opentix.life/program/1915311072937578497","district":"中正區"}},{"type":"Feature","geometry":{"type":"Point","coordinates":[121.5293005,25.0432788]},"properties":{"title":"雪豹","startDate":"2025/06/04","endDate":"2025/06/04","nextStartTime":"2025/06/04 19:25:00","nextEndTime":"2025/06/04 21:14:00","nextOnSales":1,"nextPrice":"","nextLocation":"臺北市中正區八德路一段1號","sourceWebName":"OPENTIX兩廳院文化生活","webSales":"https://www.opentix.life/program/1914577398257725441","district":"中正區"}},{"type":"Feature","geometry":{"type":"Point","coordinates":[121.5604377,25.0433039]},"properties":{"title":"世壯運博覽會表演活動演出 6/1","startDate":"2025/06/01","endDate":"2025/06/01","nextStartTime":"2025/06/01 11:00:00","nextEndTime":"2025/06/01 18:45:00","nextOnSales":0,"nextPrice":"","nextLocation":"臺北市信義區光復南路133號","sourceWebName":"全國藝文活動資訊系統","webSales":"","district":"信義區"}},{"type":"Feature","geometry":{"type":"Point","coordinates":[121.5149875,25.0418254]},"properties":{"title":"「偶爺●偶孫三代一起玩-偶戲體驗工作坊」","startDate":"2025/06/04","endDate":"2025/07/12","nextStartTime":"2025/06/04 10:00:00","nextEndTime":"2025/06/04 10:00:00","nextOnSales":0,"nextPrice":"","nextLocation":"臺北市中正區中正區襄陽路2號(二二八公園內)","sourceWebName":"藝文活動報名平台","webSales":"https://event.culture.tw/mocweb/reg/NTM/Detail.init.ctr?actId=50084","district":"中正區"}},{"type":"Feature","geometry":{"type":"Point","coordinates":[121.5159774,25.0331483]},"properties":{"title":"「藏之有物．開放庫房」專場導覽","startDate":"2025/06/14","endDate":"2025/08/30","nextStartTime":"2025/06/14 14:00:00","nextEndTime":"2025/06/14 14:00:00","nextOnSales":1,"nextPrice":"活動免費，須事先網路報名。活動當日請先至臺博館南門館紅樓購買門票與報到集合。全票新臺幣20元，半票新臺幣10元。","nextLocation":"臺北市中正區中正區南昌路一段1號","sourceWebName":"藝文活動報名平台","webSales":"https://event.culture.tw/mocweb/reg/NTM/Detail.init.ctr?actId=50095","district":"中正區"}},{"type":"Feature","geometry":{"type":"Point","coordinates":[121.5981787,25.0526976]},"properties":{"title":"黃小琥 2025 琥  嚮 世界巡迴演唱會","startDate":"2025/06/21","endDate":"2025/10/25","nextStartTime":"2025/06/21 19:30:00","nextEndTime":"2025/06/21 23:00:00","nextOnSales":1,"nextPrice":"4600、4200、3600、2800、2200、1600","nextLocation":"臺北市南港區市民大道八段99號","sourceWebName":"年代","webSales":"https://ticket.com.tw/Application/UTK02/UTK0201_.aspx?PRODUCT_ID=P0SY09F6","district":"南港區"}},{"type":"Feature","geometry":{"type":"Point","coordinates":[121.5608333,25.0336111]},"properties":{"title":"CLOSE YOUR EYES 1ST FANMEETING","startDate":"2025/06/28","endDate":"2025/06/28","nextStartTime":"2025/06/28 19:00:00","nextEndTime":"2025/06/28 23:00:00","nextOnSales":1,"nextPrice":"5800、4800、3800","nextLocation":"臺北市信義區信義路五段一號","sourceWebName":"年代","webSales":"https://ticket.com.tw/Application/UTK02/UTK0201_.aspx?PRODUCT_ID=P0W5W7V4","district":"信義區"}},{"type":"Feature","geometry":{"type":"Point","coordinates":[121.519047,25.0367564]},"properties":{"title":"六四事件三十六周年紀念晚會(免費參觀)","startDate":"2025/06/04","endDate":"2025/06/04","nextStartTime":"2025/06/04 12:00:00","nextEndTime":"2025/06/04 12:00:00","nextOnSales":0,"nextPrice":"","nextLocation":"臺北市中正區中山南路21號","sourceWebName":"藝文活動報名平台","webSales":"https://event.culture.tw/mocweb/reg/CKSMH/Detail.init.ctr?actId=50772","district":"中正區"}}]}